OBJECT_NAME,OBJECT_ID,EPOCH,MEAN_MOTION,ECCENTRICITY,INCLINATION,RA_OF_ASC_NODE,ARG_OF_PERICENTER,MEAN_ANOMALY,EPHEMERIS_TYPE,CLASSIFICATION_TYPE,NORAD_CAT_ID,ELEMENT_SET_NO,REV_AT_EPOCH,BSTAR,MEAN_MOTION_DOT,MEAN_MOTION_DDOT
PAKSAT-1R,2011-042A,2026-06-25T05:14:38.786208,1.00271145,.00034921,0.7101,84.5443,345.7665,319.6510,0,U,37779,999,5455,0,.163E-5,0
SES-2,2011-049A,2026-06-24T13:56:35.534112,1.00271305,.00029412,0.0797,95.6351,355.9740,303.2612,0,U,37809,999,5403,0,-.187E-5,0
ARABSAT-5C,2011-049B,2026-06-24T12:44:16.513152,1.00274907,.00036331,0.0470,0.6481,114.1597,8.9787,0,U,37810,999,5411,0,.132E-5,0
EUTELSAT 7 WEST A,2011-051A,2026-06-25T05:46:38.811072,1.00273355,.00046696,0.0601,351.2239,115.9694,245.5472,0,U,37816,999,5395,0,-.5E-6,0
QUETZSAT 1,2011-054A,2026-06-24T12:16:44.327424,1.00271400,.00028803,0.0193,314.3940,141.8709,283.5842,0,U,37826,999,4994,0,-.233E-5,0
INTELSAT 18 (IS-18),2011-056A,2026-06-25T06:27:21.438432,1.00272607,.00020307,0.0188,290.9297,166.1669,93.1403,0,U,37834,999,5389,0,.63E-6,0
EUTELSAT 16A,2011-057A,2026-06-25T05:30:38.660832,1.00271590,.00056096,0.0397,3.4720,90.9385,277.6092,0,U,37836,999,741,0,.113E-5,0
VIASAT-1,2011-059A,2026-06-24T10:23:12.979968,1.00271146,.00025709,0.0012,0.1652,93.8447,219.2641,0,U,37843,999,4739,0,-.16E-6,0
ASIASAT 7,2011-069A,2026-06-23T16:53:24.198720,1.00269035,.00014481,0.0420,274.3642,160.0323,196.3116,0,U,37933,999,4492,0,-.327E-5,0
BEIDOU-2 IGSO-5,2011-073A,2026-06-24T15:46:07.226112,1.00272136,.01142233,47.6633,271.4526,222.0346,107.5350,0,U,37948,999,5320,0,-.196E-5,0
LUCH-5A,2011-074B,2026-06-24T13:19:21.819360,1.00271915,.00026562,8.7729,73.7008,31.6607,174.1088,0,U,37951,999,5312,0,-.49E-6,0
NIGCOMSAT 1R,2011-077A,2026-06-24T12:50:53.378592,1.00274091,.00023049,0.0555,106.4783,251.2721,150.1493,0,U,38014,999,5303,0,.153E-5,0
WGS F4 (USA 233),2012-003A,2026-06-25T04:03:38.815200,1.00266025,.00017159,0.0237,15.5830,100.9470,306.1198,0,U,38070,999,4422,0,0,0
SES-4,2012-007A,2026-06-24T09:07:09.687072,1.00276512,.00025122,0.0250,33.6116,64.4268,289.2952,0,U,38087,999,5229,0,-.16E-5,0
BEIDOU-2 G5,2012-008A,2026-06-25T04:19:28.189632,1.00275083,.00087715,3.5944,69.6576,275.7368,51.5000,0,U,38091,999,5244,0,.63E-6,0
MUOS-1,2012-009A,2026-06-25T05:40:36.991200,1.00273101,.00578416,5.4919,47.1458,2.2946,209.0978,0,U,38093,999,5252,0,-.123E-5,0
INTELSAT 22 (IS-22),2012-011A,2026-06-25T01:36:38.653056,1.00270636,.00019762,0.0333,49.1082,86.4675,233.9022,0,U,38098,999,726,0,0,0
APSTAR-7,2012-013A,2026-06-25T01:36:38.653056,1.00269810,.00032139,0.0153,11.2687,91.6768,270.9327,0,U,38107,999,5188,0,0,0
YAHSAT 1B,2012-016A,2026-06-24T18:00:17.502048,1.00271700,.00030752,0.0944,89.4121,26.4215,114.7280,0,U,38245,999,4568,0,.135E-5,0
AEHF-2 (USA 235),2012-019A,2026-06-24T10:51:17.788608,1.00271223,.00021528,6.6669,57.4346,31.7264,329.6927,0,U,38254,999,706,0,-.133E-5,0
JCSAT-13,2012-023A,2026-06-25T06:20:38.808384,1.00270858,.00027767,0.0131,45.8809,54.4994,32.1904,0,U,38331,999,5162,0,-.346E-5,0
VINASAT-2,2012-023B,2026-06-25T06:22:53.592384,1.00271054,.0002538,0.0147,338.0759,120.8440,42.0512,0,U,38332,999,4674,0,-.319E-5,0
NIMIQ 6,2012-026A,2026-06-25T03:36:39.305088,1.00271846,.00029344,0.0121,16.6889,72.8832,146.7779,0,U,38342,999,5049,0,-.164E-5,0
ZHONGXING-2A,2012-028A,2026-06-24T21:10:03.982656,1.00271347,.00040828,1.4754,83.7966,42.0320,202.9516,0,U,38352,999,5137,0,-.284E-5,0
INTELSAT 19 (IS-19),2012-030A,2026-06-24T19:38:38.744736,1.00273280,.00033211,0.0179,1.9960,99.4834,272.1565,0,U,38356,999,5052,0,-.47E-6,0
ECHOSTAR 17,2012-035A,2026-06-24T08:32:38.551200,1.00272282,.00021384,0.0031,81.5300,10.6793,201.3571,0,U,38551,999,5113,0,-.68E-6,0
METEOSAT-10 (MSG-3),2012-035B,2026-06-24T22:54:39.746016,1.00268164,.00017192,4.6902,60.9889,6.8463,189.1353,0,U,38552,999,5093,0,-.1E-7,0
SES-5,2012-036A,2026-06-24T19:30:50.087808,1.00272324,.00020539,0.0448,318.0698,132.6249,119.9515,0,U,38652,999,4453,0,.43E-6,0
INTELSAT 20 (IS-20),2012-043A,2026-06-24T20:55:38.710848,1.00271269,.00023379,0.0375,69.0879,110.0778,116.2550,0,U,38740,999,5082,0,0,0
HYLAS 2,2012-043B,2026-06-25T07:07:19.733952,1.00271004,.0002785,2.4484,80.9787,31.5109,195.2003,0,U,38741,999,5085,0,-.249E-5,0
INTELSAT 21 (IS-21),2012-045A,2026-06-25T03:46:08.884992,1.00270968,.00017707,0.0211,65.5976,42.2671,163.9705,0,U,38749,999,5060,0,-.275E-5,0
ASTRA 2F,2012-051A,2026-06-25T05:14:38.786208,1.00275742,.00024675,0.0864,258.6271,272.8185,208.7814,0,U,38778,999,4121,0,.16E-5,0
