[{"id":"37779","name":"PAKSAT-1R","tle1":"1 37779U 11042A   26176.21850447  .00000163  00000+0  00000+0 0  9992","tle2":"2 37779   0.7101  84.5443 0003492 345.7665 319.6510  1.00271145 54551"},{"id":"37809","name":"SES-2","tle1":"1 37809U 11049A   26175.58096683 -.00000187  00000+0  00000+0 0  9993","tle2":"2 37809   0.0797  95.6351 0002941 355.9740 303.2612  1.00271305 54038"},{"id":"37810","name":"ARABSAT-5C","tle1":"1 37810U 11049B   26175.53074668  .00000132  00000+0  00000+0 0  9998","tle2":"2 37810   0.0470   0.6481 0003633 114.1597   8.9787  1.00274907 54114"},{"id":"37816","name":"EUTELSAT 7 WEST A","tle1":"1 37816U 11051A   26176.24072698 -.00000050  00000+0  00000+0 0  9997","tle2":"2 37816   0.0601 351.2239 0004669 115.9694 245.5472  1.00273355 53956"},{"id":"37826","name":"QUETZSAT 1","tle1":"1 37826U 11054A   26175.51162416 -.00000233  00000+0  00000+0 0  9991","tle2":"2 37826   0.0193 314.3940 0002880 141.8709 283.5842  1.00271400 49946"},{"id":"37834","name":"INTELSAT 18 (IS-18)","tle1":"1 37834U 11056A   26176.26899813  .00000063  00000+0  00000+0 0  9993","tle2":"2 37834   0.0188 290.9297 0002030 166.1669  93.1403  1.00272607 53892"},{"id":"37836","name":"EUTELSAT 16A","tle1":"1 37836U 11057A   26176.22961413  .00000113  00000+0  00000+0 0  9994","tle2":"2 37836   0.0397   3.4720 0005609  90.9385 277.6092  1.00271590  7418"},{"id":"37843","name":"VIASAT-1","tle1":"1 37843U 11059A   26175.43278912 -.00000016  00000+0  00000+0 0  9994","tle2":"2 37843   0.0012   0.1652 0002570  93.8447 219.2641  1.00271146 47393"},{"id":"37933","name":"ASIASAT 7","tle1":"1 37933U 11069A   26174.70375230 -.00000327  00000+0  00000+0 0  9990","tle2":"2 37933   0.0420 274.3642 0001448 160.0323 196.3116  1.00269035 44925"},{"id":"37948","name":"BEIDOU-2 IGSO-5","tle1":"1 37948U 11073A   26175.65702808 -.00000196  00000+0  00000+0 0  9995","tle2":"2 37948  47.6633 271.4526 0114223 222.0346 107.5350  1.00272136 53204"},{"id":"37951","name":"LUCH-5A","tle1":"1 37951U 11074B   26175.55511365 -.00000049  00000+0  00000+0 0  9992","tle2":"2 37951   8.7729  73.7008 0002656  31.6607 174.1088  1.00271915 53123"},{"id":"38014","name":"NIGCOMSAT 1R","tle1":"1 38014U 11077A   26175.53534003  .00000153  00000+0  00000+0 0  9993","tle2":"2 38014   0.0555 106.4783 0002304 251.2721 150.1493  1.00274091 53039"},{"id":"38070","name":"WGS F4 (USA 233)","tle1":"1 38070U 12003A   26176.16919925  .00000000  00000+0  00000+0 0  9996","tle2":"2 38070   0.0237  15.5830 0001715 100.9470 306.1198  1.00266025 44221"},{"id":"38087","name":"SES-4","tle1":"1 38087U 12007A   26175.37997323 -.00000160  00000+0  00000+0 0  9996","tle2":"2 38087   0.0250  33.6116 0002512  64.4268 289.2952  1.00276512 52294"},{"id":"38091","name":"BEIDOU-2 G5","tle1":"1 38091U 12008A   26176.18018738  .00000063  00000+0  00000+0 0  9997","tle2":"2 38091   3.5944  69.6576 0008771 275.7368  51.5000  1.00275083 52440"},{"id":"38093","name":"MUOS-1","tle1":"1 38093U 12009A   26176.23653925 -.00000123  00000+0  00000+0 0  9997","tle2":"2 38093   5.4919  47.1458 0057841   2.2946 209.0978  1.00273101 52524"},{"id":"38098","name":"INTELSAT 22 (IS-22)","tle1":"1 38098U 12011A   26176.06711404  .00000000  00000+0  00000+0 0  9996","tle2":"2 38098   0.0333  49.1082 0001976  86.4675 233.9022  1.00270636  7263"},{"id":"38107","name":"APSTAR-7","tle1":"1 38107U 12013A   26176.06711404  .00000000  00000+0  00000+0 0  9999","tle2":"2 38107   0.0153  11.2687 0003213  91.6768 270.9327  1.00269810 51880"},{"id":"38245","name":"YAHSAT 1B","tle1":"1 38245U 12016A   26175.75020257  .00000135  00000+0  00000+0 0  9998","tle2":"2 38245   0.0944  89.4121 0003075  26.4215 114.7280  1.00271700 45685"},{"id":"38254","name":"AEHF-2 (USA 235)","tle1":"1 38254U 12019A   26175.45228922 -.00000133  00000+0  00000+0 0  9996","tle2":"2 38254   6.6669  57.4346 0002152  31.7264 329.6927  1.00271223  7068"},{"id":"38331","name":"JCSAT-13","tle1":"1 38331U 12023A   26176.26433806 -.00000346  00000+0  00000+0 0  9992","tle2":"2 38331   0.0131  45.8809 0002776  54.4994  32.1904  1.00270858 51620"},{"id":"38332","name":"VINASAT-2","tle1":"1 38332U 12023B   26176.26589806 -.00000319  00000+0  00000+0 0  9995","tle2":"2 38332   0.0147 338.0759 0002538 120.8440  42.0512  1.00271054 46740"},{"id":"38342","name":"NIMIQ 6","tle1":"1 38342U 12026A   26176.15045492 -.00000164  00000+0  00000+0 0  9993","tle2":"2 38342   0.0121  16.6889 0002934  72.8832 146.7779  1.00271846 50490"},{"id":"38352","name":"ZHONGXING-2A","tle1":"1 38352U 12028A   26175.88199054 -.00000284  00000+0  00000+0 0  9992","tle2":"2 38352   1.4754  83.7966 0004082  42.0320 202.9516  1.00271347 51374"},{"id":"38356","name":"INTELSAT 19 (IS-19)","tle1":"1 38356U 12030A   26175.81850399 -.00000047  00000+0  00000+0 0  9995","tle2":"2 38356   0.0179   1.9960 0003321  99.4834 272.1565  1.00273280 50528"},{"id":"38551","name":"ECHOSTAR 17","tle1":"1 38551U 12035A   26175.35600175 -.00000068  00000+0  00000+0 0  9994","tle2":"2 38551   0.0031  81.5300 0002138  10.6793 201.3571  1.00272282 51138"},{"id":"38552","name":"METEOSAT-10 (MSG-3)","tle1":"1 38552U 12035B   26175.95462669 -.00000001  00000+0  00000+0 0  9992","tle2":"2 38552   4.6902  60.9889 0001719   6.8463 189.1353  1.00268164 50936"},{"id":"38652","name":"SES-5","tle1":"1 38652U 12036A   26175.81307972  .00000043  00000+0  00000+0 0  9999","tle2":"2 38652   0.0448 318.0698 0002053 132.6249 119.9515  1.00272324 44532"},{"id":"38740","name":"INTELSAT 20 (IS-20)","tle1":"1 38740U 12043A   26175.87197582  .00000000  00000+0  00000+0 0  9998","tle2":"2 38740   0.0375  69.0879 0002337 110.0778 116.2550  1.00271269 50820"},{"id":"38741","name":"HYLAS 2","tle1":"1 38741U 12043B   26176.29675618 -.00000249  00000+0  00000+0 0  9993","tle2":"2 38741   2.4484  80.9787 0002785  31.5109 195.2003  1.00271004 50850"},{"id":"38749","name":"INTELSAT 21 (IS-21)","tle1":"1 38749U 12045A   26176.15704728 -.00000275  00000+0  00000+0 0  9992","tle2":"2 38749   0.0211  65.5976 0001770  42.2671 163.9705  1.00270968 50607"},{"id":"38778","name":"ASTRA 2F","tle1":"1 38778U 12051A   26176.21850447  .00000160  00000+0  00000+0 0  9990","tle2":"2 38778   0.0864 258.6271 0002467 272.8185 208.7814  1.00275742 41212"}]